{
    "links": {
        "self": "http://www.neowsapp.com/rest/v1/neo/3878622?api_key=iIulBulltgU6a56xZRHN4H3l9WmuAYTsLGpBGhQ2"
    },
    "id": "3878622",
    "neo_reference_id": "3878622",
    "name": "(2019 TS5)",
    "designation": "2019 TS5",
    "nasa_jpl_url": "http://ssd.jpl.nasa.gov/sbdb.cgi?sstr=3878622",
    "absolute_magnitude_h": 25.1,
    "estimated_diameter": {
        "kilometers": {
            "estimated_diameter_min": 0.0253837029,
            "estimated_diameter_max": 0.0567596853
        },
        "meters": {
            "estimated_diameter_min": 25.3837029364,
            "estimated_diameter_max": 56.7596852866
        },
        "miles": {
            "estimated_diameter_min": 0.0157726969,
            "estimated_diameter_max": 0.0352688224
        },
        "feet": {
            "estimated_diameter_min": 83.279867942,
            "estimated_diameter_max": 186.2194458756
        }
    },
    "is_potentially_hazardous_asteroid": false,
    "close_approach_data": [
        {
            "close_approach_date": "2019-09-23",
            "close_approach_date_full": "2019-Sep-23 13:13",
            "epoch_date_close_approach": 1569244380000,
            "relative_velocity": {
                "kilometers_per_second": "12.465037206",
                "kilometers_per_hour": "44874.1339417368",
                "miles_per_hour": "27883.0417261864"
            },
            "miss_distance": {
                "astronomical": "0.0578033603",
                "lunar": "22.4855071567",
                "kilometers": "8647259.579722561",
                "miles": "5373157.9461949018"
            },
            "orbiting_body": "Earth"
        }
    ],
    "orbital_data": {
        "orbit_id": "1",
        "orbit_determination_date": "2019-10-09 22:42:03",
        "first_observation_date": "2019-10-08",
        "last_observation_date": "2019-10-10",
        "data_arc_in_days": 2,
        "observations_used": 18,
        "orbit_uncertainty": "8",
        "minimum_orbit_intersection": ".0562566",
        "jupiter_tisserand_invariant": "4.691",
        "epoch_osculation": "2458765.5",
        "eccentricity": ".4003226793784233",
        "semi_major_axis": "1.380448585238255",
        "inclination": "12.37727363128217",
        "ascending_node_longitude": "13.41500416449461",
        "orbital_period": "592.4187300998069",
        "perihelion_distance": ".8278237088515231",
        "perihelion_argument": "275.1134010741147",
        "aphelion_distance": "1.933073461624988",
        "perihelion_time": "2458695.730183787824",
        "mean_anomaly": "42.39760250684813",
        "mean_motion": ".6076782885297187",
        "equinox": "J2000",
        "orbit_class": {
            "orbit_class_type": "APO",
            "orbit_class_description": "Near-Earth asteroid orbits which cross the Earth’s orbit similar to that of 1862 Apollo",
            "orbit_class_range": "a (semi-major axis) > 1.0 AU; q (perihelion) < 1.017 AU"
        }
    },
    "is_sentry_object": false
}